ONEWEB-0338             
1 49204U 21083U   23353.36914042  .00000069  00000+0  13881-3 0  9996
2 49204  87.9203  95.7735 0001913 123.5362 236.5954 13.20772544116582
ONEWEB-0339             
1 49205U 21083V   23353.42305990  .00000199  00000+0  51001-3 0  9990
2 49205  87.8986 141.4932 0001682  99.9330 260.1989 13.13468036111331
ONEWEB-0340             
1 49206U 21083W   23353.46392244  .00000085  00000+0  18225-3 0  9998
2 49206  87.9215 156.6381 0001596  86.8503 273.2812 13.18685366109941
ONEWEB-0341             
1 49207U 21083X   23353.47233174  .00000061  00000+0  12248-3 0  9999
2 49207  87.9219 156.6500 0002277  95.2635 264.8757 13.18684803109967
ONEWEB-0342             
1 49208U 21083Y   23353.37544884 -.00000090  00000+0 -25326-3 0  9997
2 49208  87.9190  95.7970 0001692 117.0389 243.0917 13.20769772116551
ONEWEB-0343             
1 49209U 21083Z   23353.46811618  .00000129  00000+0  29530-3 0  9992
2 49209  87.9204 156.6711 0002448 102.2977 257.8430 13.18685171110012
ONEWEB-0344             
1 49210U 21083AA  23353.46592461  .00000124  00000+0  30329-3 0  9999
2 49210  87.8995 141.4951 0001558  91.8390 268.2918 13.13472676111344
ONEWEB-0345             
1 49211U 21083AB  23353.40721090  .00000487  00000+0  12979-2 0  9998
2 49211  87.8986 141.4886 0002075  88.2618 271.8749 13.13472446111347
